[{"OBJECT_NAME":"STARLINK-3652","OBJECT_ID":"2022-025AM","EPOCH":"2025-09-09T01:45:39.394368","MEAN_MOTION":15.08846099,"ECCENTRICITY":0.0001484,"INCLINATION":53.217,"RA_OF_ASC_NODE":134.4296,"ARG_OF_PERICENTER":89.2082,"MEAN_ANOMALY":270.9081,"EPHEMERIS_TYPE":0,"CLASSIFICATION_TYPE":"U","NORAD_CAT_ID":51991,"ELEMENT_SET_NO":999,"REV_AT_EPOCH":19364,"BSTAR":4.133897e-5,"MEAN_MOTION_DOT":3.7e-6,"MEAN_MOTION_DDOT":0},{"OBJECT_NAME":"STARLINK-3643","OBJECT_ID":"2022-025AN","EPOCH":"2025-09-09T00:55:18.616224","MEAN_MOTION":15.08841746,"ECCENTRICITY":0.00014219,"INCLINATION":53.2173,"RA_OF_ASC_NODE":114.5841,"ARG_OF_PERICENTER":94.1277,"MEAN_ANOMALY":265.9878,"EPHEMERIS_TYPE":0,"CLASSIFICATION_TYPE":"U","NORAD_CAT_ID":51992,"ELEMENT_SET_NO":999,"REV_AT_EPOCH":19348,"BSTAR":8.224867e-6,"MEAN_MOTION_DOT":-1.57e-6,"MEAN_MOTION_DDOT":0},{"OBJECT_NAME":"STARLINK-3648","OBJECT_ID":"2022-025AP","EPOCH":"2025-09-08T22:18:59.345856","MEAN_MOTION":15.08841633,"ECCENTRICITY":0.00015006,"INCLINATION":53.2175,"RA_OF_ASC_NODE":135.0756,"ARG_OF_PERICENTER":89.044,"MEAN_ANOMALY":271.0724,"EPHEMERIS_TYPE":0,"CLASSIFICATION_TYPE":"U","NORAD_CAT_ID":51993,"ELEMENT_SET_NO":999,"REV_AT_EPOCH":19362,"BSTAR":8.1302943e-5,"MEAN_MOTION_DOT":1.006e-5,"MEAN_MOTION_DDOT":0},{"OBJECT_NAME":"STARLINK-3647","OBJECT_ID":"2022-025AQ","EPOCH":"2025-09-09T02:25:21.820800","MEAN_MOTION":15.0887755,"ECCENTRICITY":0.00013268,"INCLINATION":53.2176,"RA_OF_ASC_NODE":114.3039,"ARG_OF_PERICENTER":82.1551,"MEAN_ANOMALY":277.9592,"EPHEMERIS_TYPE":0,"CLASSIFICATION_TYPE":"U","NORAD_CAT_ID":51994,"ELEMENT_SET_NO":999,"REV_AT_EPOCH":19350,"BSTAR":-0.00010492969,"MEAN_MOTION_DOT":-1.959e-5,"MEAN_MOTION_DDOT":0},{"OBJECT_NAME":"STARLINK-3636","OBJECT_ID":"2022-025AR","EPOCH":"2025-09-09T01:05:56.373504","MEAN_MOTION":15.08825438,"ECCENTRICITY":0.00015422,"INCLINATION":53.2167,"RA_OF_ASC_NODE":114.5511,"ARG_OF_PERICENTER":79.8032,"MEAN_ANOMALY":280.3134,"EPHEMERIS_TYPE":0,"CLASSIFICATION_TYPE":"U","NORAD_CAT_ID":51995,"ELEMENT_SET_NO":999,"REV_AT_EPOCH":19348,"BSTAR":-3.7962684e-5,"MEAN_MOTION_DOT":-8.92e-6,"MEAN_MOTION_DDOT":0},{"OBJECT_NAME":"STARLINK-3538","OBJECT_ID":"2022-025AS","EPOCH":"2025-09-08T21:33:56.650176","MEAN_MOTION":15.08837557,"ECCENTRICITY":0.00013021,"INCLINATION":53.2171,"RA_OF_ASC_NODE":115.2134,"ARG_OF_PERICENTER":86.1654,"MEAN_ANOMALY":273.9487,"EPHEMERIS_TYPE":0,"CLASSIFICATION_TYPE":"U","NORAD_CAT_ID":51996,"ELEMENT_SET_NO":999,"REV_AT_EPOCH":19347,"BSTAR":2.3707535e-5,"MEAN_MOTION_DOT":8.9e-7,"MEAN_MOTION_DDOT":0},{"OBJECT_NAME":"STARLINK-3589","OBJECT_ID":"2022-025AT","EPOCH":"2025-09-09T01:00:36.781632","MEAN_MOTION":15.08843419,"ECCENTRICITY":0.00013132,"INCLINATION":53.2179,"RA_OF_ASC_NODE":114.5673,"ARG_OF_PERICENTER":95.9969,"MEAN_ANOMALY":264.1172,"EPHEMERIS_TYPE":0,"CLASSIFICATION_TYPE":"U","NORAD_CAT_ID":51997,"ELEMENT_SET_NO":999,"REV_AT_EPOCH":19348,"BSTAR":-8.8550742e-5,"MEAN_MOTION_DOT":-1.697e-5,"MEAN_MOTION_DDOT":0},{"OBJECT_NAME":"STARLINK-3618","OBJECT_ID":"2022-025AU","EPOCH":"2025-09-08T22:26:56.641056","MEAN_MOTION":15.08833204,"ECCENTRICITY":0.00014946,"INCLINATION":53.2165,"RA_OF_ASC_NODE":115.0496,"ARG_OF_PERICENTER":82.4813,"MEAN_ANOMALY":277.6348,"EPHEMERIS_TYPE":0,"CLASSIFICATION_TYPE":"U","NORAD_CAT_ID":51998,"ELEMENT_SET_NO":999,"REV_AT_EPOCH":19348,"BSTAR":-7.7949406e-5,"MEAN_MOTION_DOT":-1.528e-5,"MEAN_MOTION_DDOT":0},{"OBJECT_NAME":"STARLINK-3667","OBJECT_ID":"2022-025AV","EPOCH":"2025-09-09T06:00:04.000320","MEAN_MOTION":15.29520975,"ECCENTRICITY":0.00014463,"INCLINATION":53.2189,"RA_OF_ASC_NODE":112.8949,"ARG_OF_PERICENTER":112.0379,"MEAN_ANOMALY":37.5433,"EPHEMERIS_TYPE":0,"CLASSIFICATION_TYPE":"U","NORAD_CAT_ID":51999,"ELEMENT_SET_NO":999,"REV_AT_EPOCH":570,"BSTAR":0.065599694,"MEAN_MOTION_DOT":0.02120444,"MEAN_MOTION_DDOT":0},{"OBJECT_NAME":"STARLINK-3653","OBJECT_ID":"2022-025AW","EPOCH":"2025-09-09T01:16:29.689824","MEAN_MOTION":15.08840163,"ECCENTRICITY":0.00012533,"INCLINATION":53.217,"RA_OF_ASC_NODE":114.4325,"ARG_OF_PERICENTER":87.0274,"MEAN_ANOMALY":273.0862,"EPHEMERIS_TYPE":0,"CLASSIFICATION_TYPE":"U","NORAD_CAT_ID":52000,"ELEMENT_SET_NO":999,"REV_AT_EPOCH":19350,"BSTAR":3.5374888e-5,"MEAN_MOTION_DOT":2.75e-6,"MEAN_MOTION_DDOT":0},{"OBJECT_NAME":"STARLINK-3659","OBJECT_ID":"2022-025AX","EPOCH":"2025-09-08T22:23:01.371264","MEAN_MOTION":15.0883655,"ECCENTRICITY":0.00012676,"INCLINATION":53.2163,"RA_OF_ASC_NODE":115.0714,"ARG_OF_PERICENTER":85.1303,"MEAN_ANOMALY":274.9834,"EPHEMERIS_TYPE":0,"CLASSIFICATION_TYPE":"U","NORAD_CAT_ID":52001,"ELEMENT_SET_NO":999,"REV_AT_EPOCH":19348,"BSTAR":6.032854e-5,"MEAN_MOTION_DOT":6.72e-6,"MEAN_MOTION_DDOT":0},{"OBJECT_NAME":"STARLINK-3668","OBJECT_ID":"2022-025AY","EPOCH":"2025-09-08T23:57:01.801728","MEAN_MOTION":15.08830976,"ECCENTRICITY":0.00011486,"INCLINATION":53.2172,"RA_OF_ASC_NODE":114.808,"ARG_OF_PERICENTER":76.6593,"MEAN_ANOMALY":283.4527,"EPHEMERIS_TYPE":0,"CLASSIFICATION_TYPE":"U","NORAD_CAT_ID":52002,"ELEMENT_SET_NO":999,"REV_AT_EPOCH":19349,"BSTAR":0.00015680358,"MEAN_MOTION_DOT":2.208e-5,"MEAN_MOTION_DDOT":0},{"OBJECT_NAME":"STARLINK-3722","OBJECT_ID":"2022-029B","EPOCH":"2025-09-09T04:31:36.663456","MEAN_MOTION":15.0933208,"ECCENTRICITY":0.00027611,"INCLINATION":53.2173,"RA_OF_ASC_NODE":183.8584,"ARG_OF_PERICENTER":78.455,"MEAN_ANOMALY":281.6753,"EPHEMERIS_TYPE":0,"CLASSIFICATION_TYPE":"U","NORAD_CAT_ID":52089,"ELEMENT_SET_NO":999,"REV_AT_EPOCH":19325,"BSTAR":0.00029489345,"MEAN_MOTION_DOT":4.47e-5,"MEAN_MOTION_DDOT":0},{"OBJECT_NAME":"STARLINK-3712","OBJECT_ID":"2022-029C","EPOCH":"2025-09-09T02:47:55.618080","MEAN_MOTION":15.08855624,"ECCENTRICITY":0.00011542,"INCLINATION":53.216,"RA_OF_ASC_NODE":184.2321,"ARG_OF_PERICENTER":72.7612,"MEAN_ANOMALY":287.3507,"EPHEMERIS_TYPE":0,"CLASSIFICATION_TYPE":"U","NORAD_CAT_ID":52090,"ELEMENT_SET_NO":999,"REV_AT_EPOCH":19324,"BSTAR":-1.9872545e-5,"MEAN_MOTION_DOT":-6.04e-6,"MEAN_MOTION_DDOT":0},{"OBJECT_NAME":"STARLINK-3716","OBJECT_ID":"2022-029E","EPOCH":"2025-09-09T04:28:36.998112","MEAN_MOTION":15.08821055,"ECCENTRICITY":0.0001576,"INCLINATION":53.2176,"RA_OF_ASC_NODE":183.9221,"ARG_OF_PERICENTER":99.9912,"MEAN_ANOMALY":260.1258,"EPHEMERIS_TYPE":0,"CLASSIFICATION_TYPE":"U","NORAD_CAT_ID":52092,"ELEMENT_SET_NO":999,"REV_AT_EPOCH":19325,"BSTAR":0.00034132094,"MEAN_MOTION_DOT":5.146e-5,"MEAN_MOTION_DDOT":0},{"OBJECT_NAME":"STARLINK-3673","OBJECT_ID":"2022-029F","EPOCH":"2025-09-09T05:49:25.858560","MEAN_MOTION":15.08850066,"ECCENTRICITY":0.0001379,"INCLINATION":53.2172,"RA_OF_ASC_NODE":183.6769,"ARG_OF_PERICENTER":90.3892,"MEAN_ANOMALY":269.7258,"EPHEMERIS_TYPE":0,"CLASSIFICATION_TYPE":"U","NORAD_CAT_ID":52093,"ELEMENT_SET_NO":999,"REV_AT_EPOCH":19326,"BSTAR":0.00031414223,"MEAN_MOTION_DOT":4.717e-5,"MEAN_MOTION_DDOT":0},{"OBJECT_NAME":"STARLINK-3714","OBJECT_ID":"2022-029G","EPOCH":"2025-09-09T02:42:37.402560","MEAN_MOTION":15.08851872,"ECCENTRICITY":0.00012961,"INCLINATION":53.2178,"RA_OF_ASC_NODE":184.25,"ARG_OF_PERICENTER":107.5827,"MEAN_ANOMALY":252.5307,"EPHEMERIS_TYPE":0,"CLASSIFICATION_TYPE":"U","NORAD_CAT_ID":52094,"ELEMENT_SET_NO":999,"REV_AT_EPOCH":19324,"BSTAR":-7.3815943e-5,"MEAN_MOTION_DOT":-1.463e-5,"MEAN_MOTION_DDOT":0},{"OBJECT_NAME":"STARLINK-3701","OBJECT_ID":"2022-029H","EPOCH":"2025-09-09T05:37:30.190944","MEAN_MOTION":15.0887627,"ECCENTRICITY":0.00012261,"INCLINATION":53.2175,"RA_OF_ASC_NODE":183.7062,"ARG_OF_PERICENTER":91.593,"MEAN_ANOMALY":268.5203,"EPHEMERIS_TYPE":0,"CLASSIFICATION_TYPE":"U","NORAD_CAT_ID":52095,"ELEMENT_SET_NO":999,"REV_AT_EPOCH":19326,"BSTAR":0.00081592069,"MEAN_MOTION_DOT":0.00012734,"MEAN_MOTION_DDOT":0},{"OBJECT_NAME":"STARLINK-3717","OBJECT_ID":"2022-029J","EPOCH":"2025-09-09T01:56:15.459936","MEAN_MOTION":15.08851057,"ECCENTRICITY":0.00014986,"INCLINATION":53.2167,"RA_OF_ASC_NODE":174.3975,"ARG_OF_PERICENTER":81.2534,"MEAN_ANOMALY":278.8628,"EPHEMERIS_TYPE":0,"CLASSIFICATION_TYPE":"U","NORAD_CAT_ID":52096,"ELEMENT_SET_NO":999,"REV_AT_EPOCH":19336,"BSTAR":0.00045876106,"MEAN_MOTION_DOT":7.023e-5,"MEAN_MOTION_DDOT":0},{"OBJECT_NAME":"STARLINK-3665","OBJECT_ID":"2022-029L","EPOCH":"2025-09-09T02:32:01.553856","MEAN_MOTION":15.08838778,"ECCENTRICITY":0.00012085,"INCLINATION":53.2168,"RA_OF_ASC_NODE":184.2812,"ARG_OF_PERICENTER":90.5802,"MEAN_ANOMALY":269.5329,"EPHEMERIS_TYPE":0,"CLASSIFICATION_TYPE":"U","NORAD_CAT_ID":52098,"ELEMENT_SET_NO":999,"REV_AT_EPOCH":19324,"BSTAR":1.8855609e-5,"MEAN_MOTION_DOT":1.2e-7,"MEAN_MOTION_DDOT":0},{"OBJECT_NAME":"STARLINK-3702","OBJECT_ID":"2022-029N","EPOCH":"2025-09-09T02:21:25.547904","MEAN_MOTION":15.08839239,"ECCENTRICITY":0.00012908,"INCLINATION":53.2173,"RA_OF_ASC_NODE":184.3162,"ARG_OF_PERICENTER":86.3664,"MEAN_ANOMALY":273.7476,"EPHEMERIS_TYPE":0,"CLASSIFICATION_TYPE":"U","NORAD_CAT_ID":52100,"ELEMENT_SET_NO":999,"REV_AT_EPOCH":19324,"BSTAR":4.1306893e-5,"MEAN_MOTION_DOT":3.7e-6,"MEAN_MOTION_DDOT":0},{"OBJECT_NAME":"STARLINK-3703","OBJECT_ID":"2022-029P","EPOCH":"2025-09-09T02:37:21.498240","MEAN_MOTION":15.08837259,"ECCENTRICITY":0.00012996,"INCLINATION":53.2175,"RA_OF_ASC_NODE":184.4573,"ARG_OF_PERICENTER":88.0589,"MEAN_ANOMALY":272.0552,"EPHEMERIS_TYPE":0,"CLASSIFICATION_TYPE":"U","NORAD_CAT_ID":52101,"ELEMENT_SET_NO":999,"REV_AT_EPOCH":19323,"BSTAR":5.3653697e-5,"MEAN_MOTION_DOT":5.66e-6,"MEAN_MOTION_DDOT":0},{"OBJECT_NAME":"STARLINK-3709","OBJECT_ID":"2022-029Q","EPOCH":"2025-09-09T02:24:08.236512","MEAN_MOTION":15.08839605,"ECCENTRICITY":0.00013326,"INCLINATION":53.2172,"RA_OF_ASC_NODE":174.3091,"ARG_OF_PERICENTER":91.4823,"MEAN_ANOMALY":268.6322,"EPHEMERIS_TYPE":0,"CLASSIFICATION_TYPE":"U","NORAD_CAT_ID":52102,"ELEMENT_SET_NO":999,"REV_AT_EPOCH":19337,"BSTAR":4.3677416e-5,"MEAN_MOTION_DOT":4.07e-6,"MEAN_MOTION_DDOT":0}]
